{"fetched_at":"2026-07-24T07:06:41.580Z","source":"https://celestrak.org/NORAD/elements/gp.php?NAME=NUSAT&FORMAT=JSON","constellation":"satellogic","records":[{"OBJECT_NAME":"NUSAT-47","OBJECT_ID":"2025-276CF","EPOCH":"2026-07-23T14:57:45.133920","CLASSIFICATION_TYPE":"U","MEAN_MOTION":15.20653029,"ECCENTRICITY":0.0001359,"INCLINATION":97.4172,"RA_OF_ASC_NODE":277.656,"ARG_OF_PERICENTER":172.2093,"MEAN_ANOMALY":187.9163,"EPHEMERIS_TYPE":0,"NORAD_CAT_ID":66743,"ELEMENT_SET_NO":999,"REV_AT_EPOCH":3596,"BSTAR":0.0002746,"MEAN_MOTION_DOT":0.0000596,"MEAN_MOTION_DDOT":0},{"OBJECT_NAME":"NUSAT-53 (JANE GOODALL)","OBJECT_ID":"2026-067S","EPOCH":"2026-07-23T19:58:04.336032","CLASSIFICATION_TYPE":"U","MEAN_MOTION":15.18917044,"ECCENTRICITY":0.000057,"INCLINATION":97.4575,"RA_OF_ASC_NODE":162.8392,"ARG_OF_PERICENTER":200.2421,"MEAN_ANOMALY":159.8791,"EPHEMERIS_TYPE":0,"NORAD_CAT_ID":68432,"ELEMENT_SET_NO":999,"REV_AT_EPOCH":1750,"BSTAR":0.00027502,"MEAN_MOTION_DOT":0.00005674,"MEAN_MOTION_DDOT":0},{"OBJECT_NAME":"NUSAT-54 (BRANCA MARQUES)","OBJECT_ID":"2026-067AC","EPOCH":"2026-07-23T19:52:59.890080","CLASSIFICATION_TYPE":"U","MEAN_MOTION":15.18059623,"ECCENTRICITY":0.0002857,"INCLINATION":97.4557,"RA_OF_ASC_NODE":162.6656,"ARG_OF_PERICENTER":324.324,"MEAN_ANOMALY":35.7803,"EPHEMERIS_TYPE":0,"NORAD_CAT_ID":68442,"ELEMENT_SET_NO":999,"REV_AT_EPOCH":1749,"BSTAR":0.00026839,"MEAN_MOTION_DOT":0.000054,"MEAN_MOTION_DDOT":0}]}
