NUSAT-47                
1 66743U 25276CF  26204.62343905  .00005960  00000+0  27460-3 0  9995
2 66743  97.4172 277.6560 0001359 172.2093 187.9163 15.20653029 35964
NUSAT-53 (JANE GOODALL) 
1 68432U 26067S   26204.83199463  .00005674  00000+0  27502-3 0  9991
2 68432  97.4575 162.8392 0000570 200.2421 159.8791 15.18917044 17509
NUSAT-54 (BRANCA MARQU*)
1 68442U 26067AC  26204.82847095  .00005400  00000+0  26839-3 0  9991
2 68442  97.4557 162.6656 0002857 324.3240  35.7803 15.18059623 17492
